SAUDISAT 2              
1 28371U 04025F   26130.86782317  .00000184  00000+0  52031-4 0  9993
2 28371  98.5511 129.8869 0025718  53.2238 307.1315 14.56660597160311
COSMOS 2407             
1 28380U 04028A   26130.84506811  .00000067  00000+0  52378-4 0  9991
2 28380  82.9578 102.4904 0039262 359.0518  64.0245 13.76331448 94740
COSMOS 2414             
1 28521U 05002A   26130.83322785  .00000074  00000+0  47989-4 0  9996
2 28521  82.9495  71.8985 0041588  76.2895 284.2893 13.87922594 78638
INMARSAT 4-F1           
1 28628U 05009A   26130.57542198  .00000044  00000+0  00000+0 0  9999
2 28628   5.1174  42.6757 0002831   9.3801 201.6092  1.00270950 77291
SJ-7                    
1 28737U 05024A   26130.66296897  .00004686  00000+0  21410-3 0  9997
2 28737  97.7319 159.7702 0016739 157.4109 202.7866 15.20968778142325
CUBESAT XI-V            
1 28895U 05043F   26130.69101812  .00000909  00000+0  15124-3 0  9997
2 28895  98.2944 285.5370 0013279 328.9496  31.0924 14.72531612 96234
HINODE (SOLAR-B)        
1 29479U 06041A   26130.64401528  .00000466  00000+0  88440-4 0  9997
2 29479  98.0566 147.3489 0018570  50.6689 309.6159 14.68568000 49361
SHIJIAN-6 02B (SJ-6 02B)
1 29506U 06046B   26130.88927951  .00001131  00000+0  92601-4 0  9996
2 29506  97.7156 160.1796 0011414 182.3441 177.7731 15.01267924 65149
DMSP 5D-3 F17 (USA 191) 
1 29522U 06050A   26130.83400641  .00000052  00000+0  49164-4 0  9993
2 29522  98.7388 138.1676 0010500 156.3390 203.8269 14.14986484  7141
LAPAN-TUBSAT            
1 29709U 07001A   26130.88125376  .00000550  00000+0  69612-4 0  9994
2 29709  98.1350 129.2664 0011111 312.3840  47.6433 14.85912519 45619
HAIYANG-1B              
1 31113U 07010A   26130.87724992  .00000061  00000+0  38977-4 0  9991
2 31113  98.3482 114.1731 0012641 316.3501  43.6682 14.31017585995294
COSMO-SKYMED 2          
1 32376U 07059A   26130.82772933  .00000281  00000+0  41817-4 0  9990
2 32376  97.8887 314.9678 0001453  90.0138 270.1241 14.82154643996461
CARTOSAT-2A             
1 32783U 08021A   26130.84174497  .00000649  00000+0  94124-4 0  9992
2 32783  97.7663 180.8205 0010541 228.5950 131.4357 14.79187382973282
CUTE-1.7+APD II (CO-65) 
1 32785U 08021C   26130.85602559  .00002757  00000+0  17805-3 0  9992
2 32785  97.8261 111.5143 0009907 146.2097 213.9765 15.09094611979565
SEEDS II (CO-66)        
1 32791U 08021J   26130.77634397  .00011493  00000+0  38060-3 0  9998
2 32791  97.7531 126.9295 0005076  88.9113 271.2709 15.31469835981560
YUBILEINY (RS30)        
1 32953U 08025A   26130.83711846 -.00000044  00000+0 -38500-3 0  9995
2 32953  82.5069  18.6729 0020379  34.9249 325.3163 12.43177798815050
FENGYUN 3A              
1 32958U 08026A   26130.83188169  .00000039  00000+0  39111-4 0  9999
2 32958  98.6868  72.3679 0007750 231.4963 128.5519 14.19563169930104
HUANJING 1A (HJ-1A)     
1 33320U 08041A   26130.87771059  .00000767  00000+0  98334-4 0  9990
2 33320  97.6679 118.1650 0017305 260.9541  98.9716 14.83904285952877
HUANJING 1B (HJ-1B)     
1 33321U 08041B   26130.89768777  .00000113  00000+0  20057-4 0  9998
2 33321  97.6518 121.4673 0035179 307.7447  52.0581 14.83251403952885
SHIJIAN-6 03A (SJ-6 03A)
1 33408U 08053A   26130.84584880  .00002107  00000+0  11085-3 0  9998
2 33408  97.8442 162.8749 0012590 135.6221 224.6023 15.16784954957301
SHIJIAN-6 03B (SJ-6 03B)
1 33409U 08053B   26130.84873968  .00000782  00000+0  60731-4 0  9997
2 33409  97.8611 150.1217 0019795 162.0981 198.0946 15.04205394957133
CHUANGXIN 1-02 (CX-1-02)
1 33434U 08056B   26130.86743964 -.00000208  00000+0 -63180-4 0  9998
2 33434  98.6165 157.5022 0013062 248.5588 111.4201 14.30144438913283
