OBJECT_NAME,OBJECT_ID,EPOCH,MEAN_MOTION,ECCENTRICITY,INCLINATION,RA_OF_ASC_NODE,ARG_OF_PERICENTER,MEAN_ANOMALY,EPHEMERIS_TYPE,CLASSIFICATION_TYPE,NORAD_CAT_ID,ELEMENT_SET_NO,REV_AT_EPOCH,BSTAR,MEAN_MOTION_DOT,MEAN_MOTION_DDOT
SAUDISAT 2,2004-025F,2026-05-10T20:49:39.921888,14.56660597,.0025718,98.5511,129.8869,53.2238,307.1315,0,U,28371,999,16031,.52031E-4,.184E-5,0
COSMOS 2407,2004-028A,2026-05-10T20:16:53.884704,13.76331448,.0039262,82.9578,102.4904,359.0518,64.0245,0,U,28380,999,9474,.52378E-4,.67E-6,0
COSMOS 2414,2005-002A,2026-05-10T19:59:50.886240,13.87922594,.0041588,82.9495,71.8985,76.2895,284.2893,0,U,28521,999,7863,.47989E-4,.74E-6,0
INMARSAT 4-F1,2005-009A,2026-05-10T13:48:36.459072,1.00270950,.0002831,5.1174,42.6757,9.3801,201.6092,0,U,28628,999,7729,0,.44E-6,0
SJ-7,2005-024A,2026-05-10T15:54:40.519008,15.20968778,.0016739,97.7319,159.7702,157.4109,202.7866,0,U,28737,999,14232,.2141E-3,.4686E-4,0
CUBESAT XI-V,2005-043F,2026-05-10T16:35:03.965568,14.72531612,.0013279,98.2944,285.5370,328.9496,31.0924,0,U,28895,999,9623,.15124E-3,.909E-5,0
HINODE (SOLAR-B),2006-041A,2026-05-10T15:27:22.920192,14.68568000,.001857,98.0566,147.3489,50.6689,309.6159,0,U,29479,999,4936,.8844E-4,.466E-5,0
SHIJIAN-6 02B (SJ-6 02B),2006-046B,2026-05-10T21:20:33.749664,15.01267924,.0011414,97.7156,160.1796,182.3441,177.7731,0,U,29506,999,6514,.92601E-4,.1131E-4,0
DMSP 5D-3 F17 (USA 191),2006-050A,2026-05-10T20:00:58.153824,14.14986484,.00105,98.7388,138.1676,156.3390,203.8269,0,U,29522,999,714,.49164E-4,.52E-6,0
LAPAN-TUBSAT,2007-001A,2026-05-10T21:09:00.324864,14.85912519,.0011111,98.1350,129.2664,312.3840,47.6433,0,U,29709,999,4561,.69612E-4,.55E-5,0
HAIYANG-1B,2007-010A,2026-05-10T21:03:14.393088,14.31017585,.0012641,98.3482,114.1731,316.3501,43.6682,0,U,31113,999,99529,.38977E-4,.61E-6,0
COSMO-SKYMED 2,2007-059A,2026-05-10T19:51:55.814112,14.82154643,.0001453,97.8887,314.9678,90.0138,270.1241,0,U,32376,999,99646,.41817E-4,.281E-5,0
CARTOSAT-2A,2008-021A,2026-05-10T20:12:06.765408,14.79187382,.0010541,97.7663,180.8205,228.5950,131.4357,0,U,32783,999,97328,.94124E-4,.649E-5,0
CUTE-1.7+APD II (CO-65),2008-021C,2026-05-10T20:32:40.610976,15.09094611,.0009907,97.8261,111.5143,146.2097,213.9765,0,U,32785,999,97956,.17805E-3,.2757E-4,0
SEEDS II (CO-66),2008-021J,2026-05-10T18:37:56.119008,15.31469835,.0005076,97.7531,126.9295,88.9113,271.2709,0,U,32791,999,98156,.3806E-3,.11493E-3,0
YUBILEINY (RS30),2008-025A,2026-05-10T20:05:27.034944,12.43177798,.0020379,82.5069,18.6729,34.9249,325.3163,0,U,32953,999,81505,-.385E-3,-.44E-6,0
FENGYUN 3A,2008-026A,2026-05-10T19:57:54.578016,14.19563169,.000775,98.6868,72.3679,231.4963,128.5519,0,U,32958,999,93010,.39111E-4,.39E-6,0
HUANJING 1A (HJ-1A),2008-041A,2026-05-10T21:03:54.194976,14.83904285,.0017305,97.6679,118.1650,260.9541,98.9716,0,U,33320,999,95287,.98334E-4,.767E-5,0
HUANJING 1B (HJ-1B),2008-041B,2026-05-10T21:32:40.223328,14.83251403,.0035179,97.6518,121.4673,307.7447,52.0581,0,U,33321,999,95288,.20057E-4,.113E-5,0
SHIJIAN-6 03A (SJ-6 03A),2008-053A,2026-05-10T20:18:01.336320,15.16784954,.001259,97.8442,162.8749,135.6221,224.6023,0,U,33408,999,95730,.11085E-3,.2107E-4,0
SHIJIAN-6 03B (SJ-6 03B),2008-053B,2026-05-10T20:22:11.108352,15.04205394,.0019795,97.8611,150.1217,162.0981,198.0946,0,U,33409,999,95713,.60731E-4,.782E-5,0
CHUANGXIN 1-02 (CX-1-02),2008-056B,2026-05-10T20:49:06.784896,14.30144438,.0013062,98.6165,157.5022,248.5588,111.4201,0,U,33434,999,91328,-.6318E-4,-.208E-5,0
